CTC1_L_00317016-03
1 69805U 25047WV  26037.47804398  .00000000  00000+0  00000-0 0  9996
2 69805  85.0000 180.0000 0000000   0.0000   0.0000 14.60983372    16
CTC1_L_00317016-04
1 69806U 23128ZX  26037.47804398  .00000000  00000+0  00000-0 0  9995
2 69806  85.0000 180.0000 0000000   0.0000  90.0000 14.60983372    16
CTC1_L_00317017-01
1 69807U 24444KW  26037.47804398  .00000000  00000+0  00000-0 0  9998
2 69807  85.0000 192.0000 0000000   0.0000 192.0000 14.60983372    13
CTC1_L_00317017-02
1 69808U 23400EM  26037.47804398  .00000000  00000+0  00000-0 0  9990
2 69808  85.0000 192.0000 0000000   0.0000 282.0000 14.60983372    14
CTC1_L_00317017-03
1 69809U 25628GX  26037.47804398  .00000000  00000+0  00000-0 0  9995
2 69809  85.0000 192.0000 0000000   0.0000  12.0000 14.60983372    16
CTC1_L_00317017-04
1 69810U 25723NU  26037.47804398  .00000000  00000+0  00000-0 0  9993
2 69810  85.0000 192.0000 0000000   0.0000 102.0000 14.60983372    18
CTC1_L_00317018-01
1 69811U 22706FV  26037.47804398  .00000000  00000+0  00000-0 0  9992
2 69811  85.0000 204.0000 0000000   0.0000 204.0000 14.60983372    16
CTC1_L_00317018-02
1 69812U 23238XX  26037.47804398  .00000000  00000+0  00000-0 0  9994
2 69812  85.0000 204.0000 0000000   0.0000 294.0000 14.60983372    16
CTC1_L_00317018-03
1 69813U 23895FH  26037.47804398  .00000000  00000+0  00000-0 0  9994
2 69813  85.0000 204.0000 0000000   0.0000  24.0000 14.60983372    18
CTC1_L_00317018-04
1 69814U 25455NZ  26037.47804398  .00000000  00000+0  00000-0 0  9999
2 69814  85.0000 204.0000 0000000   0.0000 114.0000 14.60983372    19
CTC1_L_00317019-01
1 69815U 24517TY  26037.47804398  .00000000  00000+0  00000-0 0  9998
2 69815  85.0000 216.0000 0000000   0.0000 216.0000 14.60983372    16
CTC1_L_00317019-02
1 69816U 24755BF  26037.47804398  .00000000  00000+0  00000-0 0  9993
2 69816  85.0000 216.0000 0000000   0.0000 306.0000 14.60983372    17
CTC1_L_00317019-03
1 69817U 26642XI  26037.47804398  .00000000  00000+0  00000-0 0  9991
2 69817  85.0000 216.0000 0000000   0.0000  36.0000 14.60983372    18
CTC1_L_00317019-04
1 69818U 22656QD  26037.47804398  .00000000  00000+0  00000-0 0  9993
2 69818  85.0000 216.0000 0000000   0.0000 126.0000 14.60983372    19
CTC1_L_00317020-01
1 69819U 25746HY  26037.47804398  .00000000  00000+0  00000-0 0  9997
2 69819  85.0000 228.0000 0000000   0.0000 228.0000 14.60983372    16
CTC1_L_00317020-02
1 69820U 26540LC  26037.47804398  .00000000  00000+0  00000-0 0  9992
2 69820  85.0000 228.0000 0000000   0.0000 318.0000 14.60983372    18
CTC1_L_00317020-03
1 69821U 26008KL  26037.47804398  .00000000  00000+0  00000-0 0  9992
2 69821  85.0000 228.0000 0000000   0.0000  48.0000 14.60983372    19
CTC1_L_00317020-04
1 69822U 22601LM  26037.47804398  .00000000  00000+0  00000-0 0  9998
2 69822  85.0000 228.0000 0000000   0.0000 138.0000 14.60983372    10
CTC1_L_00317021-01
1 69823U 22939WT  26037.47804398  .00000000  00000+0  00000-0 0  9993
2 69823  85.0000 240.0000 0000000   0.0000 240.0000 14.60983372    19
CTC1_L_00317021-02
1 69824U 22570PX  26037.47804398  .00000000  00000+0  00000-0 0  9995
2 69824  85.0000 240.0000 0000000   0.0000 330.0000 14.60983372    10
CTC1_L_00317021-03
1 69825U 22061TC  26037.47804398  .00000000  00000+0  00000-0 0  9991
2 69825  85.0000 240.0000 0000000   0.0000  60.0000 14.60983372    11
CTC1_L_00317021-04
1 69826U 23611V   26037.47804398  .00000000  00000+0  00000-0 0  9994
2 69826  85.0000 240.0000 0000000   0.0000 150.0000 14.60983372    12
CTC1_L_00317022-01
1 69827U 24041WI  26037.47804398  .00000000  00000+0  00000-0 0  9993
2 69827  85.0000 252.0000 0000000   0.0000 252.0000 14.60983372    19
CTC1_L_00317022-02
1 69828U 25991LG  26037.47804398  .00000000  00000+0  00000-0 0  9999
2 69828  85.0000 252.0000 0000000   0.0000 342.0000 14.60983372    10
CTC1_L_00317022-03
1 69829U 25895MP  26037.47804398  .00000000  00000+0  00000-0 0  9993
2 69829  85.0000 252.0000 0000000   0.0000  72.0000 14.60983372    11
CTC1_L_00317022-04
1 69830U 23141EK  26037.47804398  .00000000  00000+0  00000-0 0  9997
2 69830  85.0000 252.0000 0000000   0.0000 162.0000 14.60983372    13
CTC1_L_00317023-01
1 69831U 23549UN  26037.47804398  .00000000  00000+0  00000-0 0  9990
2 69831  85.0000 264.0000 0000000   0.0000 264.0000 14.60983372    10
CTC1_L_00317023-02
1 69832U 25599DM  26037.47804398  .00000000  00000+0  00000-0 0  9998
2 69832  85.0000 264.0000 0000000   0.0000 354.0000 14.60983372    11
CTC1_L_00317023-03
1 69833U 25385CX  26037.47804398  .00000000  00000+0  00000-0 0  9992
2 69833  85.0000 264.0000 0000000   0.0000  84.0000 14.60983372    12
CTC1_L_00317023-04
1 69834U 26092WN  26037.47804398  .00000000  00000+0  00000-0 0  9999
2 69834  85.0000 264.0000 0000000   0.0000 174.0000 14.60983372    13
CTC1_L_00317024-01
1 69835U 24713EI  26037.47804398  .00000000  00000+0  00000-0 0  9998
2 69835  85.0000 276.0000 0000000   0.0000 276.0000 14.60983372    10
CTC1_L_00317024-02
1 69836U 26261BB  26037.47804398  .00000000  00000+0  00000-0 0  9999
2 69836  85.0000 276.0000 0000000   0.0000   6.0000 14.60983372    12
CTC1_L_00317024-03
1 69837U 22582NW  26037.47804398  .00000000  00000+0  00000-0 0  9992
2 69837  85.0000 276.0000 0000000   0.0000  96.0000 14.60983372    12
CTC1_L_00317024-04
1 69838U 26903EQ  26037.47804398  .00000000  00000+0  00000-0 0  9994
2 69838  85.0000 276.0000 0000000   0.0000 186.0000 14.60983372    13
CTC1_L_00317025-01
1 69839U 25914NS  26037.47804398  .00000000  00000+0  00000-0 0  9996
2 69839  85.0000 288.0000 0000000   0.0000 288.0000 14.60983372    10
CTC1_L_00317025-02
1 69840U 26062FS  26037.47804398  .00000000  00000+0  00000-0 0  9993
2 69840  85.0000 288.0000 0000000   0.0000  18.0000 14.60983372    13
CTC1_L_00317025-03
1 69841U 26849DE  26037.47804398  .00000000  00000+0  00000-0 0  9997
2 69841  85.0000 288.0000 0000000   0.0000 108.0000 14.60983372    14
CTC1_L_00317025-04
1 69842U 22314WR  26037.47804398  .00000000  00000+0  00000-0 0  9991
2 69842  85.0000 288.0000 0000000   0.0000 198.0000 14.60983372    14
CTC1_L_00317026-01
1 69843U 23662XF  26037.47804398  .00000000  00000+0  00000-0 0  9999
2 69843  85.0000 300.0000 0000000   0.0000 300.0000 14.60983372    15
CTC1_L_00317026-02
1 69844U 25571IW  26037.47804398  .00000000  00000+0  00000-0 0  9991
2 69844  85.0000 300.0000 0000000   0.0000  30.0000 14.60983372    16
CTC1_L_00317026-03
1 69845U 22910NM  26037.47804398  .00000000  00000+0  00000-0 0  9996
2 69845  85.0000 300.0000 0000000   0.0000 120.0000 14.60983372    17
CTC1_L_00317026-04
1 69846U 24817JU  26037.47804398  .00000000  00000+0  00000-0 0  9995
2 69846  85.0000 300.0000 0000000   0.0000 210.0000 14.60983372    18
CTC1_L_00317027-01
1 69847U 23635KQ  26037.47804398  .00000000  00000+0  00000-0 0  9993
2 69847  85.0000 312.0000 0000000   0.0000 312.0000 14.60983372    15
CTC1_L_00317027-02
1 69848U 23514KP  26037.47804398  .00000000  00000+0  00000-0 0  9990
2 69848  85.0000 312.0000 0000000   0.0000  42.0000 14.60983372    16
CTC1_L_00317027-03
1 69849U 22800G   26037.47804398  .00000000  00000+0  00000-0 0  9998
2 69849  85.0000 312.0000 0000000   0.0000 132.0000 14.60983372    17
CTC1_L_00317027-04
1 69850U 22607JQ  26037.47804398  .00000000  00000+0  00000-0 0  9995
2 69850  85.0000 312.0000 0000000   0.0000 222.0000 14.60983372    19
CTC1_L_00317028-01
1 69851U 24995WD  26037.47804398  .00000000  00000+0  00000-0 0  9998
2 69851  85.0000 324.0000 0000000   0.0000 324.0000 14.60983372    16
CTC1_L_00317028-02
1 69852U 23227JP  26037.47804398  .00000000  00000+0  00000-0 0  9996
2 69852  85.0000 324.0000 0000000   0.0000  54.0000 14.60983372    17
CTC1_L_00317028-03
1 69853U 26306D   26037.47804398  .00000000  00000+0  00000-0 0  9998
2 69853  85.0000 324.0000 0000000   0.0000 144.0000 14.60983372    18
CTC1_L_00317028-04
1 69854U 25207KD  26037.47804398  .00000000  00000+0  00000-0 0  9998
2 69854  85.0000 324.0000 0000000   0.0000 234.0000 14.60983372    19
CTC1_L_00317029-01
1 69855U 23714TN  26037.47804398  .00000000  00000+0  00000-0 0  9990
2 69855  85.0000 336.0000 0000000   0.0000 336.0000 14.60983372    16
CTC1_L_00317029-02
1 69856U 25869AH  26037.47804398  .00000000  00000+0  00000-0 0  9994
2 69856  85.0000 336.0000 0000000   0.0000  66.0000 14.60983372    17
CTC1_L_00317029-03
1 69857U 22333RD  26037.47804398  .00000000  00000+0  00000-0 0  9998
2 69857  85.0000 336.0000 0000000   0.0000 156.0000 14.60983372    18
CTC1_L_00317029-04
1 69858U 26193QU  26037.47804398  .00000000  00000+0  00000-0 0  9997
2 69858  85.0000 336.0000 0000000   0.0000 246.0000 14.60983372    19
CTC1_L_00317030-01
1 69859U 25045OZ  26037.47804398  .00000000  00000+0  00000-0 0  9993
2 69859  85.0000 348.0000 0000000   0.0000 348.0000 14.60983372    16
CTC1_L_00317030-02
1 69860U 26306KA  26037.47804398  .00000000  00000+0  00000-0 0  9996
2 69860  85.0000 348.0000 0000000   0.0000  78.0000 14.60983372    18
CTC1_L_00317030-03
1 69861U 23664GZ  26037.47804398  .00000000  00000+0  00000-0 0  9991
2 69861  85.0000 348.0000 0000000   0.0000 168.0000 14.60983372    19
CTC1_L_00317030-04
1 69862U 26762PY  26037.47804398  .00000000  00000+0  00000-0 0  9994
2 69862  85.0000 348.0000 0000000   0.0000 258.0000 14.60983372    10
